[{"OBJECT_NAME":"CARTOSAT-2B","OBJECT_ID":"2010-035A","EPOCH":"2026-03-09T09:22:05.678400","MEAN_MOTION":14.78772269,"ECCENTRICITY":0.00124689,"INCLINATION":97.8747,"RA_OF_ASC_NODE":119.6773,"ARG_OF_PERICENTER":150.1325,"MEAN_ANOMALY":210.06,"EPHEMERIS_TYPE":0,"CLASSIFICATION_TYPE":"U","NORAD_CAT_ID":36795,"ELEMENT_SET_NO":999,"REV_AT_EPOCH":84510,"BSTAR":0.0001830405,"MEAN_MOTION_DOT":1.295e-5,"MEAN_MOTION_DDOT":0},{"OBJECT_NAME":"NOAA 16 DEB","OBJECT_ID":"2000-055RX","EPOCH":"2026-03-08T00:25:26.326848","MEAN_MOTION":14.76862855,"ECCENTRICITY":0.00219792,"INCLINATION":98.9311,"RA_OF_ASC_NODE":270.5735,"ARG_OF_PERICENTER":48.8979,"MEAN_ANOMALY":311.4121,"EPHEMERIS_TYPE":0,"CLASSIFICATION_TYPE":"U","NORAD_CAT_ID":42379,"ELEMENT_SET_NO":999,"REV_AT_EPOCH":52128,"BSTAR":0.0055241126,"MEAN_MOTION_DOT":0.00039117,"MEAN_MOTION_DDOT":0}]
